     2.11           N: GPS NAV DATA                         RINEX VERSION / TYPE
teqc  2016Apr1      IGN                 20160614 00:30:26UTCPGM / RUN BY / DATE
    17                                                      LEAP SECONDS
    8.3819D-09  2.2352D-08 -5.9605D-08 -1.1921D-07          ION ALPHA
    9.4208D+04  1.3107D+05 -6.5536D+04 -5.8982D+05          ION BETA
   -3.725290298462D-09-9.769962616701D-15   233472     1901 DELTA-UTC: A0,A1,T,W
                                                            END OF HEADER
32 16  6 14  0  0  0.0-2.416037023067D-05-8.071765478235D-12 0.000000000000D+00
    6.500000000000D+01 5.675000000000D+01 4.419826960677D-09-1.207839068923D+00
    2.821907401085D-06 4.690486239269D-04 8.428469300270D-06 5.153618618011D+03
    1.728000000000D+05 5.401670932770D-08-4.521211448890D-01-5.587935447693D-09
    9.597457601204D-01 2.200625000000D+02-2.314461595004D+00-7.996761668650D-09
   -4.464471677451D-11 1.000000000000D+00 1.901000000000D+03 0.000000000000D+00
    2.000000000000D+00 0.000000000000D+00 4.656612873077D-10 6.500000000000D+01
    1.656000000000D+05 4.000000000000D+00
14 16  6 14  0  0  0.0-1.921225339174D-05-2.046363078989D-12 0.000000000000D+00
    3.300000000000D+01 6.243750000000D+01 4.284107021682D-09-1.768867574469D+00
    3.218650817871D-06 8.741210680455D-03 7.936730980873D-06 5.154025876999D+03
    1.728000000000D+05 2.253800630569D-07-3.698080330175D-01 1.862645149231D-09
    9.640711700054D-01 2.302812500000D+02-1.963041143172D+00-7.848898366693D-09
    6.071681481333D-12 1.000000000000D+00 1.901000000000D+03 0.000000000000D+00
    2.000000000000D+00 0.000000000000D+00-9.313225746155D-09 3.300000000000D+01
    1.656000000000D+05 4.000000000000D+00
17 16  6 14  0  0  0.0-2.040164545178D-04 0.000000000000D+00 0.000000000000D+00
    3.500000000000D+01 7.812500000000D+00 4.301607750658D-09-1.535373497600D+00
    6.295740604401D-07 1.097891933750D-02 8.055940270424D-06 5.153704368591D+03
    1.728000000000D+05 2.030283212662D-07 2.741241974908D+00 1.862645149231D-07
    9.768472344311D-01 2.304375000000D+02-1.927519447048D+00-7.848184051225D-09
    4.128743407307D-10 1.000000000000D+00 1.901000000000D+03 0.000000000000D+00
    2.000000000000D+00 0.000000000000D+00-1.071020960808D-08 3.500000000000D+01
    1.656000000000D+05 4.000000000000D+00
19 16  6 14  0  0  0.0-5.254833959043D-04 1.136868377216D-13 0.000000000000D+00
    3.400000000000D+01 3.281250000000D+00 4.388754237801D-09 1.587370386954D+00
    2.197921276093D-07 1.078272319864D-02 8.469447493553D-06 5.153622049332D+03
    1.728000000000D+05-2.328306436539D-07 2.789957837445D+00 9.126961231232D-08
    9.739736873535D-01 2.264687500000D+02 7.892648138761D-01-8.046049435969D-09
    3.535861568541D-10 1.000000000000D+00 1.901000000000D+03 0.000000000000D+00
    2.000000000000D+00 0.000000000000D+00-1.490116119385D-08 3.400000000000D+01
    1.656000000000D+05 4.000000000000D+00
22 16  6 14  0  0  0.0 3.205719403923D-04-8.640199666843D-12 0.000000000000D+00
    7.500000000000D+01-1.500000000000D+01 5.373080953246D-09-1.983724114506D+00
   -8.475035429001D-07 7.679054164328D-03 8.659437298775D-06 5.153802289963D+03
    1.728000000000D+05 1.247972249985D-07-1.525955947836D+00 4.097819328308D-08
    9.225440635033D-01 1.891875000000D+02-1.905076790072D+00-8.260701234221D-09
   -2.503675716715D-10 1.000000000000D+00 1.901000000000D+03 0.000000000000D+00
    2.000000000000D+00 0.000000000000D+00-1.769512891769D-08 7.500000000000D+01
    1.656000000000D+05 4.000000000000D+00
23 16  6 14  0  0  0.0-1.780102029443D-04-1.591615728103D-12 0.000000000000D+00
    8.300000000000D+01 6.925000000000D+01 4.672337478753D-09-2.847262743648D+00
    3.419816493988D-06 1.100838382263D-02 8.365139365196D-06 5.153667720795D+03
    1.728000000000D+05-1.862645149231D-09-4.485167210132D-01-9.126961231232D-08
    9.460875400007D-01 2.095000000000D+02-2.565166755320D+00-7.996404510916D-09
    9.071806448581D-11 1.000000000000D+00 1.901000000000D+03 0.000000000000D+00
    2.000000000000D+00 0.000000000000D+00-2.002343535423D-08 8.300000000000D+01
    1.656000000000D+05 4.000000000000D+00
11 16  6 14  0  0  0.0-6.508827209473D-04-2.728484105319D-12 0.000000000000D+00
    1.800000000000D+01-1.156250000000D+01 6.226330780240D-09 2.046813283223D+00
   -8.456408977509D-07 1.645929750521D-02 4.844740033150D-06 5.153664531708D+03
    1.728000000000D+05 2.328306436539D-07-2.912715110230D+00-2.533197402954D-07
    8.971115516113D-01 2.489375000000D+02 1.530963637844D+00-8.688219042054D-09
    1.746501320219D-10 1.000000000000D+00 1.901000000000D+03 0.000000000000D+00
    2.000000000000D+00 0.000000000000D+00-1.210719347000D-08 1.800000000000D+01
    1.656300000000D+05 4.000000000000D+00
31 16  6 14  0  0  0.0 2.640513703227D-04-1.932676241267D-12 0.000000000000D+00
    4.500000000000D+01 1.634375000000D+01 4.251962825604D-09 1.795094304586D+00
    9.667128324509D-07 8.153329370543D-03 4.602596163750D-06 5.153762863159D+03
    1.728000000000D+05 7.450580596924D-09 6.336305302149D-01 8.568167686462D-08
    9.711760320771D-01 2.952187500000D+02-3.958857225037D-01-8.027120076057D-09
   -1.146476326769D-10 1.000000000000D+00 1.901000000000D+03 0.000000000000D+00
    2.000000000000D+00 0.000000000000D+00-1.350417733192D-08 4.500000000000D+01
    1.656300000000D+05 4.000000000000D+00
 1 16  6 14  0  0  0.0 2.355407923460D-05 1.250555214938D-12 0.000000000000D+00
    2.500000000000D+01-2.668750000000D+01 4.766269962847D-09 2.652955625153D+00
   -1.424923539162D-06 5.569159984589D-03 6.066635251045D-06 5.153640918732D+03
    1.728000000000D+05-1.173466444016D-07-2.534577571307D+00-7.823109626770D-08
    9.645966779749D-01 2.647500000000D+02 4.711478325584D-01-8.055335537058D-09
    2.857261873569D-11 1.000000000000D+00 1.901000000000D+03 0.000000000000D+00
    2.000000000000D+00 0.000000000000D+00 5.122274160385D-09 2.500000000000D+01
    1.656300000000D+05 4.000000000000D+00
 8 16  6 14  0  0  0.0-3.891857340932D-05-1.477928890381D-12 0.000000000000D+00
    7.600000000000D+01 3.687500000000D+00 4.570904682241D-09-6.627210833932D-01
   -5.029141902924D-08 1.725475070998D-03 7.815659046173D-06 5.153704290390D+03
    1.728000000000D+05-2.793967723846D-08 2.688421273960D+00-3.166496753693D-08
    9.636807610575D-01 2.325312500000D+02-1.076367024904D+00-8.084979628997D-09
    3.332281660049D-10 1.000000000000D+00 1.901000000000D+03 0.000000000000D+00
    2.000000000000D+00 0.000000000000D+00 4.656612873077D-09 7.600000000000D+01
    1.656300000000D+05 4.000000000000D+00
 2 16  6 14  0  0  0.0 5.855951458216D-04-2.614797267597D-12 0.000000000000D+00
    9.600000000000D+01-2.615625000000D+01 5.254147339429D-09 3.015325897387D+00
   -1.378357410431D-06 1.576822833158D-02 5.116686224937D-06 5.153574003220D+03
    1.728000000000D+05 5.215406417847D-08-2.580474809099D+00-2.812594175339D-07
    9.433999956423D-01 2.665625000000D+02-2.109097640725D+00-8.207484469835D-09
   -2.571535692719D-11 1.000000000000D+00 1.901000000000D+03 0.000000000000D+00
    2.000000000000D+00 0.000000000000D+00-2.002343535423D-08 9.600000000000D+01
    1.656300000000D+05
 9 16  6 14  0  0  0.0 1.481156796217D-04 7.275957614183D-12 0.000000000000D+00
    1.020000000000D+02 6.865625000000D+01 4.573761813731D-09-1.888121244766D+00
    3.466382622719D-06 5.383266834542D-04 8.299946784973D-06 5.153566629410D+03
    1.728000000000D+05 4.656612873077D-08-4.536039337846D-01 2.793967723846D-08
    9.551524913980D-01 2.157500000000D+02 2.319203450853D+00-8.107122972945D-09
    4.714481929846D-11 1.000000000000D+00 1.901000000000D+03 0.000000000000D+00
    2.000000000000D+00 0.000000000000D+00 1.396983861923D-09 1.020000000000D+02
    1.656300000000D+05
 7 16  6 14  0  0  0.0 4.486171528697D-04-2.387423592154D-12 0.000000000000D+00
    1.900000000000D+01 1.612500000000D+01 4.495187333475D-09 1.929856673728D+00
    8.475035429001D-07 9.575892356224D-03 4.794448614120D-06 5.153644207001D+03
    1.728000000000D+05-2.160668373108D-07 6.242038123429D-01 6.705522537231D-08
    9.663642355779D-01 2.909375000000D+02-2.672453426572D+00-8.233556947346D-09
   -1.189335296914D-10 1.000000000000D+00 1.901000000000D+03 0.000000000000D+00
    2.000000000000D+00 0.000000000000D+00-1.117587089539D-08 1.900000000000D+01
    1.656300000000D+05
 5 16  6 14  0  0  0.0-1.130620948970D-04 2.955857780762D-12 0.000000000000D+00
    4.200000000000D+01-2.862500000000D+01 4.851987700505D-09-7.687306900674D-01
   -1.560896635056D-06 4.639724851586D-03 9.579584002495D-06 5.153811872482D+03
    1.728000000000D+05 1.210719347000D-07-1.505080090753D+00 2.235174179077D-08
    9.459806635946D-01 1.874375000000D+02 4.524771942799D-01-8.155696562540D-09
   -3.939449877421D-10 1.000000000000D+00 1.901000000000D+03 0.000000000000D+00
    2.000000000000D+00 0.000000000000D+00-1.071020960808D-08 4.200000000000D+01
    1.683300000000D+05
16 16  6 14  0  0  0.0-1.103756949306D-05 2.387423592154D-12 0.000000000000D+00
    9.800000000000D+01-3.075000000000D+01 3.740512950236D-09-6.803005369280D-01
   -1.421198248863D-06 8.733600261621D-03 7.586553692818D-06 5.153775798798D+03
    1.728000000000D+05 1.545995473862D-07 1.719815792294D+00 3.911554813385D-08
    9.906197201562D-01 2.444062500000D+02 3.929683902879D-01-7.811396804603D-09
    1.392915163365D-11 1.000000000000D+00 1.901000000000D+03 0.000000000000D+00
    2.000000000000D+00 0.000000000000D+00-1.071020960808D-08 9.800000000000D+01
    1.656180000000D+05 4.000000000000D+00
